{
"type": "FeatureCollection",
"name": "seogu_fast_shadow_poly",
"crs": { "type": "name", "properties": { "name": "urn:ogc:def:crs:OGC:1.3:CRS84" } },
"features": [
{ "type": "Feature", "properties": { }, "geometry": { "type": "MultiPolygon", "coordinates": [ [ [ [ 126.611866141224354, 37.59400902752337 ], [ 126.611854981754419, 37.594118820001341 ], [ 126.636445592043771, 37.61798335495947 ], [ 126.642448613142747, 37.618321971730282 ], [ 126.641931898087435, 37.618257158678276 ], [ 126.640855808947904, 37.618034408585977 ], [ 126.63981235757862, 37.617728822027928 ], [ 126.638811595887617, 37.617343342989571 ], [ 126.637863164104516, 37.616881685064314 ], [ 126.636976197849776, 37.616348295642695 ], [ 126.636159240088006, 37.615748313028703 ], [ 126.635420158816544, 37.615087516898605 ], [ 126.634766071282797, 37.614372272581136 ], [ 126.634203275460933, 37.613609469698268 ], [ 126.633737189446947, 37.612806455759412 ], [ 126.633372299353951, 37.611970965350913 ], [ 126.633112116206533, 37.611111045604702 ], [ 126.632959142245525, 37.610234978665211 ], [ 126.632914846963473, 37.609351201903074 ], [ 126.632979653095816, 37.608468226644504 ], [ 126.633152932697953, 37.607594556199871 ], [ 126.633433013339499, 37.606738603980787 ], [ 126.633817194351266, 37.605908612494083 ], [ 126.634084516232861, 37.605469473533638 ], [ 126.633967918970967, 37.605445326273731 ], [ 126.632924671873781, 37.605139680690485 ], [ 126.631924114311943, 37.604754144957042 ], [ 126.631389688817464, 37.604493924291319 ], [ 126.63058872736535, 37.604456703646335 ], [ 126.629490596845159, 37.604318822706638 ], [ 126.628414747071602, 37.60409596159483 ], [ 126.627371542405612, 37.603790267366705 ], [ 126.626371032376071, 37.603404685044993 ], [ 126.625422854785853, 37.602942929217797 ], [ 126.624536142804502, 37.602409448218346 ], [ 126.62371943694535, 37.601809381232123 ], [ 126.622980602777687, 37.601148508747265 ], [ 126.62232675516762, 37.600433196826948 ], [ 126.621764189777764, 37.599670335743141 ], [ 126.621298322484634, 37.598867273564501 ], [ 126.620933637295238, 37.598031745340734 ], [ 126.620749299942659, 37.59742203988548 ], [ 126.620183014588406, 37.597146205822987 ], [ 126.61929640878769, 37.596612686271982 ], [ 126.618479808179913, 37.596012583770452 ], [ 126.617741077319877, 37.595351679148294 ], [ 126.617087330078135, 37.594636338777804 ], [ 126.616524861150296, 37.59387345320448 ], [ 126.616059085483741, 37.59307037073237 ], [ 126.615694486203211, 37.592234826606038 ], [ 126.615434571533896, 37.591374868472784 ], [ 126.615281841133267, 37.590498778844903 ], [ 126.615237762151111, 37.589614995309745 ], [ 126.615302755243377, 37.588732029257109 ], [ 126.615476190669, 37.587858383907282 ], [ 126.615756394501375, 37.587002472429063 ], [ 126.616140664889471, 37.586172536936118 ], [ 126.616625298206159, 37.58537656914099 ], [ 126.617205624827349, 37.584622233429805 ], [ 126.617876054192664, 37.583916793096797 ], [ 126.618630128710933, 37.58326704044763 ], [ 126.619460585988151, 37.582679231442114 ], [ 126.620359428777661, 37.582159025504204 ], [ 126.62131800197821, 37.581711431075988 ], [ 126.622327075939538, 37.581340757438568 ], [ 126.623376935274479, 37.581050573261024 ], [ 126.624457472325787, 37.580843672275293 ], [ 126.625558284390621, 37.580722046405491 ], [ 126.626668773771513, 37.580686866609433 ], [ 126.627778249694899, 37.580738471615661 ], [ 126.628876031121422, 37.5808763646641 ], [ 126.629951549463456, 37.581099218281487 ], [ 126.630994450226368, 37.581404887046041 ], [ 126.63199469259979, 37.581790428219051 ], [ 126.632942646045024, 37.582252130045966 ], [ 126.633614051982022, 37.582656107330415 ], [ 126.634349950616993, 37.5821350571944 ], [ 126.635248685404136, 37.581614736443825 ], [ 126.636207164787521, 37.581167019851982 ], [ 126.637216160018355, 37.580796217875829 ], [ 126.637331308852211, 37.580764374446773 ], [ 126.637321815499334, 37.580575139988646 ], [ 126.637386537992967, 37.579692157089148 ], [ 126.637559692892566, 37.578818474487456 ], [ 126.637839608973778, 37.577962505713138 ], [ 126.638223587156602, 37.577132493433545 ], [ 126.638707926627134, 37.576336430102543 ], [ 126.639287960589542, 37.575581981027867 ], [ 126.639958101299754, 37.574876410596836 ], [ 126.640711893943688, 37.574226512368995 ], [ 126.641542078838754, 37.573638543706842 ], [ 126.641647122030008, 37.573577712878325 ], [ 126.641452504866336, 37.573649251062726 ], [ 126.640402817029539, 37.573939598537159 ], [ 126.639322421396628, 37.574146647522682 ], [ 126.638221726226433, 37.57426840337741 ], [ 126.637111335538862, 37.574303693158789 ], [ 126.636001946849277, 37.574252176933733 ], [ 126.634904247997525, 37.574114351055286 ], [ 126.633828814071407, 37.573891543373776 ], [ 126.632786005422446, 37.573585900429229 ], [ 126.63178586776182, 37.573200366749035 ], [ 126.630838035303455, 37.572738656451307 ], [ 126.629951637891224, 37.572205217429051 ], [ 126.629135213008254, 37.571605188461803 ], [ 126.628396623518313, 37.570944349669858 ], [ 126.627742981932613, 37.57022906679034 ], [ 126.627180581932279, 37.569466229814076 ], [ 126.626714837804613, 37.568663186576394 ], [ 126.626350232374818, 37.567827671943576 ], [ 126.626090273932007, 37.566967733278851 ], [ 126.625937462560131, 37.566091652907211 ], [ 126.625893266193629, 37.565207868327363 ], [ 126.625940290406817, 37.564567509174189 ], [ 126.625239891931869, 37.564479497573117 ], [ 126.624660450992593, 37.564359385441392 ], [ 126.624797534598258, 37.565145392860181 ], [ 126.624841717987337, 37.566029177696215 ], [ 126.624776862513528, 37.56691215403341 ], [ 126.624603588952283, 37.567785818102401 ], [ 126.624323562376958, 37.568641755528148 ], [ 126.623939476263317, 37.569471722384691 ], [ 126.623455026678116, 37.570267724618475 ], [ 126.622874876795194, 37.571022095074689 ], [ 126.622204612076601, 37.571727567382965 ], [ 126.621450686546964, 37.572377345989146 ], [ 126.620620360675844, 37.572965171656662 ], [ 126.619721631464941, 37.573485381804709 ], [ 126.618763155413134, 37.573932965099452 ], [ 126.617754165101843, 37.574303609770872 ], [ 126.616704380205832, 37.574593745187357 ], [ 126.615623913789705, 37.574800576285959 ], [ 126.614523174795636, 37.574922110525009 ], [ 126.614249679942589, 37.574930748445084 ], [ 126.611866141224354, 37.59400902752337 ] ] ], [ [ [ 126.677998849656277, 37.620320963339914 ], [ 126.67769255041803, 37.61979393866568 ], [ 126.677547362123335, 37.619462034192239 ], [ 126.676710158335922, 37.619357276818896 ], [ 126.67563394365925, 37.619134842533143 ], [ 126.674590328837994, 37.618829561718542 ], [ 126.673589367357991, 37.618444375413794 ], [ 126.672640701377205, 37.617982994391262 ], [ 126.671753468776345, 37.617449863373444 ], [ 126.670936215090279, 37.61685011817503 ], [ 126.670196811171479, 37.616189536185651 ], [ 126.669542377379898, 37.615474480672219 ], [ 126.668979215029253, 37.61471183943938 ], [ 126.668512745749922, 37.613908958441321 ], [ 126.66814745934991, 37.613073570986181 ], [ 126.667886870673513, 37.612213723216783 ], [ 126.667733485869249, 37.611337696587164 ], [ 126.667705321104876, 37.610780943191799 ], [ 126.667023067466559, 37.610911790189327 ], [ 126.665921869685164, 37.611033797664334 ], [ 126.664810940315391, 37.611069341418904 ], [ 126.663700982067056, 37.611018079071521 ], [ 126.663111196423628, 37.61094420263786 ], [ 126.66245374130726, 37.611017024569549 ], [ 126.661342811156018, 37.611052535655269 ], [ 126.660232856157904, 37.611001240715737 ], [ 126.65913456961411, 37.610863633971036 ], [ 126.658058532279966, 37.610641041159731 ], [ 126.657015110326128, 37.610335606751654 ], [ 126.6567072517159, 37.610217069332599 ], [ 126.6566820302275, 37.610271596571344 ], [ 126.656197653870606, 37.611067728785628 ], [ 126.655617506631074, 37.611822255199364 ], [ 126.654947173937572, 37.612527907939487 ], [ 126.654818969344035, 37.612638417894161 ], [ 126.654671004583179, 37.612958276116977 ], [ 126.654186588966766, 37.613754399245515 ], [ 126.653606400200559, 37.61450891493125 ], [ 126.652936024113231, 37.615214555404293 ], [ 126.652181915795211, 37.61586452348935 ], [ 126.651351337471155, 37.616452558122923 ], [ 126.650452288570492, 37.616972994709002 ], [ 126.649493428669075, 37.617420819729993 ], [ 126.648483994045009, 37.617791719084451 ], [ 126.647433708653978, 37.618082119684473 ], [ 126.64635269038429, 37.618289223909635 ], [ 126.645251353498125, 37.618411036584419 ], [ 126.644469682917688, 37.618435906337346 ], [ 126.677998849656277, 37.620320963339914 ] ] ], [ [ [ 126.699063387973567, 37.554085158954301 ], [ 126.69903794726072, 37.55421412135108 ], [ 126.698758822754797, 37.555070247890242 ], [ 126.698375630479262, 37.555900469342347 ], [ 126.697892057887231, 37.556696789207408 ], [ 126.697312759699372, 37.557451537276243 ], [ 126.696643313166462, 37.558157443545461 ], [ 126.695890164423417, 37.558807708284107 ], [ 126.695060566447822, 37.559396067575094 ], [ 126.694162509219836, 37.559916853698482 ], [ 126.693204642755276, 37.560365049772152 ], [ 126.692196193753787, 37.560736338122162 ], [ 126.691146876666849, 37.561027141914209 ], [ 126.690066800044804, 37.56123465964383 ], [ 126.688966369068552, 37.561356892151274 ], [ 126.687856185209299, 37.561392661899426 ], [ 126.686746943987472, 37.561341624328549 ], [ 126.685649331821296, 37.561204271177417 ], [ 126.68523914135514, 37.561119463830217 ], [ 126.685441655058895, 37.561582641614486 ], [ 126.68570228074249, 37.562442458238955 ], [ 126.685855786905535, 37.563318470009186 ], [ 126.685900691480811, 37.564202240823725 ], [ 126.685836558169825, 37.565085259563794 ], [ 126.685664000792428, 37.565959022057008 ], [ 126.685384677522109, 37.566815112985594 ], [ 126.685001275057203, 37.567645286949926 ], [ 126.684517482874725, 37.568441547906019 ], [ 126.683937957810286, 37.569196226210821 ], [ 126.683268279300464, 37.569902052531688 ], [ 126.682967312924475, 37.570161790609269 ], [ 126.682910642522288, 37.570448670878875 ], [ 126.683599988120903, 37.570863047892814 ], [ 126.684416849096891, 37.571462705318694 ], [ 126.685155945245143, 37.572123199462503 ], [ 126.685810158165737, 37.572838170902813 ], [ 126.686373186195127, 37.573600735500627 ], [ 126.686839605142026, 37.574403550642486 ], [ 126.687204920598958, 37.575238885903964 ], [ 126.687465611323432, 37.576098697454533 ], [ 126.687619163266788, 37.576974705489413 ], [ 126.687664093918357, 37.577858473943486 ], [ 126.687599966725983, 37.578741491720919 ], [ 126.687427395447997, 37.579615254658663 ], [ 126.687148038389196, 37.580471347434575 ], [ 126.687147877448751, 37.58047169587293 ], [ 126.687527076628186, 37.580886050509527 ], [ 126.688090181414879, 37.581648606797508 ], [ 126.688556667541704, 37.58245141486892 ], [ 126.688922039953411, 37.583286744367825 ], [ 126.689182776858019, 37.584146551519638 ], [ 126.689336363760759, 37.585022556562265 ], [ 126.689381317812959, 37.585906323459632 ], [ 126.689362820400007, 37.586161077436664 ], [ 126.689570240192936, 37.586261958314395 ], [ 126.690239193967102, 37.586663934811817 ], [ 126.690936252927983, 37.586062404383576 ], [ 126.691766182550367, 37.585474080527092 ], [ 126.692664566368933, 37.584953318626717 ], [ 126.693622753692381, 37.584505132476686 ], [ 126.694631518577353, 37.584133837053407 ], [ 126.69568114860536, 37.583843007009882 ], [ 126.696761538321169, 37.583635442292987 ], [ 126.697304895210664, 37.583575072747244 ], [ 126.697853218240724, 37.5831863104764 ], [ 126.698751532709352, 37.58266550123728 ], [ 126.699709654859362, 37.582217264740834 ], [ 126.700718359374022, 37.581845916448195 ], [ 126.701767934415315, 37.58155503152129 ], [ 126.702764345173279, 37.581363540572212 ], [ 126.699063387973567, 37.554085158954301 ] ] ], [ [ [ 126.695305658008948, 37.526369098155328 ], [ 126.69523379230175, 37.52673344823048 ], [ 126.694954732633832, 37.527589570414236 ], [ 126.694571644599293, 37.528419784496464 ], [ 126.694088214651785, 37.52921609404887 ], [ 126.693509096141824, 37.529970828962561 ], [ 126.692839864592742, 37.53067671936202 ], [ 126.692086964070896, 37.531326965670488 ], [ 126.691257645164356, 37.531915304149862 ], [ 126.690359895165642, 37.532436067282134 ], [ 126.689402361130703, 37.532884238408187 ], [ 126.688394266555562, 37.533255500095777 ], [ 126.687345322475466, 37.533546275768742 ], [ 126.686265633844698, 37.533753764194643 ], [ 126.685165602103197, 37.533875966496907 ], [ 126.684055824872416, 37.533911705430064 ], [ 126.683808025266075, 37.533900293596936 ], [ 126.682954064721756, 37.53429991615635 ], [ 126.681945920010293, 37.534671122104278 ], [ 126.681132954760386, 37.534896429286981 ], [ 126.681720550521263, 37.535068465356858 ], [ 126.682720447558566, 37.535453575468338 ], [ 126.683668140117177, 37.535914870299877 ], [ 126.684554503102788, 37.536447908695934 ], [ 126.684909169843664, 37.536708383747701 ], [ 126.685385881213847, 37.536995057956688 ], [ 126.686202392114282, 37.537594702276301 ], [ 126.686941175298941, 37.538255185271467 ], [ 126.68759511538309, 37.538970147626308 ], [ 126.688157913332958, 37.539732705287626 ], [ 126.688624147176483, 37.540535515707212 ], [ 126.688897608019516, 37.541161051833001 ], [ 126.689155107556815, 37.541350136209637 ], [ 126.68989395357903, 37.542010601049874 ], [ 126.690547954306311, 37.542725547311449 ], [ 126.691110810121117, 37.543488091096407 ], [ 126.691271772614996, 37.543765218969071 ], [ 126.691333283623408, 37.543777935996516 ], [ 126.692375927947225, 37.544083061214344 ], [ 126.693376001001027, 37.544468082549912 ], [ 126.694323873879711, 37.544929293250085 ], [ 126.695210419754588, 37.545462252969557 ], [ 126.696027101704189, 37.546061830481328 ], [ 126.696766054891043, 37.54672225303694 ], [ 126.697420162294407, 37.547437161903161 ], [ 126.697983123270134, 37.548199673542626 ], [ 126.698351110686886, 37.548833070918526 ], [ 126.695305658008948, 37.526369098155328 ] ] ], [ [ [ 126.691496969636944, 37.498257411909542 ], [ 126.691430440998417, 37.498296022353131 ], [ 126.690473353116758, 37.498744209896927 ], [ 126.689612463497625, 37.499061420972545 ], [ 126.689656961696954, 37.499936815813612 ], [ 126.689592941609291, 37.500819847290302 ], [ 126.689420589795546, 37.501693626951322 ], [ 126.689141562460961, 37.502549739314937 ], [ 126.688758543464132, 37.50337993877708 ], [ 126.688275218598008, 37.504176229050763 ], [ 126.687696240204687, 37.504930940213519 ], [ 126.687027182461023, 37.505636802619577 ], [ 126.686274487761708, 37.506287016962915 ], [ 126.685445404713818, 37.50687531981464 ], [ 126.685280575056751, 37.506970955523087 ], [ 126.684838338187333, 37.507699447646104 ], [ 126.684498899764023, 37.508141857316097 ], [ 126.684498945254148, 37.508142753367395 ], [ 126.684434855661195, 37.509025780034293 ], [ 126.684262423222435, 37.509899550035158 ], [ 126.683983304918229, 37.510755647980723 ], [ 126.683834505643091, 37.511078083105787 ], [ 126.683979923212902, 37.511410905071038 ], [ 126.684084409471524, 37.511755855158583 ], [ 126.684311937217487, 37.51186663751897 ], [ 126.685198023543336, 37.51239966994784 ], [ 126.686014268508941, 37.512999314881597 ], [ 126.686752811483274, 37.513659798920706 ], [ 126.687406539395411, 37.514374762737944 ], [ 126.687969155256454, 37.515137322264714 ], [ 126.688435238850147, 37.515940134933658 ], [ 126.688754896564689, 37.516671580941342 ], [ 126.689574356357824, 37.51698721195411 ], [ 126.690521860627058, 37.517448450975103 ], [ 126.691408057257391, 37.517981437599715 ], [ 126.692224412688873, 37.518581040340486 ], [ 126.692963065227602, 37.519241486204493 ], [ 126.693616900748282, 37.519956416232525 ], [ 126.69417962122624, 37.520718946681811 ], [ 126.694645805438029, 37.521521735265637 ], [ 126.694650036216814, 37.521531413545794 ], [ 126.691496969636944, 37.498257411909542 ] ] ], [ [ [ 126.652552844498231, 37.59175376007417 ], [ 126.652633770612837, 37.591506178336189 ], [ 126.653017657924963, 37.590676118657306 ], [ 126.653501931555169, 37.589879995574982 ], [ 126.654081925338303, 37.589125474972612 ], [ 126.654752051914102, 37.588419821926308 ], [ 126.654844382869598, 37.588340207616859 ], [ 126.654571905897669, 37.588327598536488 ], [ 126.65389456045466, 37.58864410560512 ], [ 126.652885538518376, 37.589015049394362 ], [ 126.652770383239329, 37.589046907880338 ], [ 126.652779916390401, 37.58923614131735 ], [ 126.652715365142441, 37.590119133362904 ], [ 126.652542358238705, 37.59099283838561 ], [ 126.652361886369505, 37.591544965417363 ], [ 126.652552844498231, 37.59175376007417 ] ] ], [ [ [ 126.649761691544853, 37.571691735157707 ], [ 126.650438899068973, 37.57137524924628 ], [ 126.651258868128579, 37.571073753096947 ], [ 126.651171211498877, 37.57078413793748 ], [ 126.651018098770081, 37.569908086893335 ], [ 126.650973604473592, 37.569024308603588 ], [ 126.651038153269397, 37.568141314410617 ], [ 126.651211119698402, 37.567267607808915 ], [ 126.651321581696479, 37.566929565640109 ], [ 126.650861668214873, 37.566834342042227 ], [ 126.649818884883899, 37.566528849564023 ], [ 126.648818750285869, 37.566143459825518 ], [ 126.64849269311091, 37.565984681623554 ], [ 126.648472824839331, 37.566256354949857 ], [ 126.648299829066545, 37.567130057324839 ], [ 126.648020075191383, 37.567986054428793 ], [ 126.647636254061695, 37.568816101762813 ], [ 126.647152059189992, 37.569612204499919 ], [ 126.646572151294379, 37.570366694518697 ], [ 126.645902113503269, 37.571072304298305 ], [ 126.64514839765242, 37.571722236961229 ], [ 126.644318262188449, 37.572310231787462 ], [ 126.644213222924492, 37.572371065054675 ], [ 126.644407834185046, 37.57229952222967 ], [ 126.645457484016333, 37.572009138584846 ], [ 126.646537832753523, 37.571802032782379 ], [ 126.647638479504323, 37.57168019871736 ], [ 126.648748828160819, 37.571644809350929 ], [ 126.649761691544853, 37.571691735157707 ] ] ], [ [ [ 126.638872373543066, 37.555739602808039 ], [ 126.638825466954231, 37.55637996950535 ], [ 126.639525807351987, 37.556467899878569 ], [ 126.640594110421773, 37.556689224088608 ], [ 126.640551138355193, 37.556443112094946 ], [ 126.640506772709372, 37.555559329484652 ], [ 126.640571430229869, 37.55467634039799 ], [ 126.640744484413261, 37.553802648279451 ], [ 126.641024265009449, 37.552946666750934 ], [ 126.641408074247209, 37.55211663860355 ], [ 126.641863391609462, 37.5513679486737 ], [ 126.641839528752485, 37.551313282404813 ], [ 126.641762719085989, 37.551059330311453 ], [ 126.641075721323446, 37.551546045085274 ], [ 126.640177391529917, 37.552066417799033 ], [ 126.639219311536735, 37.552514173726578 ], [ 126.638298451927028, 37.552852740482045 ], [ 126.638415033437553, 37.553119837818457 ], [ 126.638675089089517, 37.553979752503508 ], [ 126.638828027992915, 37.554855819713183 ], [ 126.638872373543066, 37.555739602808039 ] ] ], [ [ [ 126.694452027279013, 37.600787009957713 ], [ 126.693451200358723, 37.600401992587301 ], [ 126.692502635852989, 37.599940771085357 ], [ 126.691833552107383, 37.599538806794705 ], [ 126.691136372558191, 37.60014033978392 ], [ 126.690306273031609, 37.600728655810471 ], [ 126.689407681407005, 37.601249395981441 ], [ 126.688449252849878, 37.601697543855238 ], [ 126.687440219477651, 37.60206878222035 ], [ 126.686390301375297, 37.602359534722382 ], [ 126.685309612887906, 37.602567000349779 ], [ 126.684513726428122, 37.602655318643535 ], [ 126.68539361895246, 37.603083216727292 ], [ 126.685678184685386, 37.603254192197866 ], [ 126.686405246001513, 37.603052856737797 ], [ 126.687485938684716, 37.602845381140156 ], [ 126.688586983985516, 37.602723170434437 ], [ 126.689697781961797, 37.60268740120506 ], [ 126.69080763887149, 37.60273841785154 ], [ 126.69131319381286, 37.602801628523885 ], [ 126.692140602218487, 37.602215224091921 ], [ 126.693039186914291, 37.601694463109105 ], [ 126.693997588577503, 37.601246277637586 ], [ 126.694894252560488, 37.600916317955011 ], [ 126.694452027279013, 37.600787009957713 ] ] ] ] } }
]
}
