{
"type": "FeatureCollection",
"name": "seogu_shadow_hubs",
"crs": { "type": "name", "properties": { "name": "urn:ogc:def:crs:OGC:1.3:CRS84" } },
"features": [
{ "type": "Feature", "properties": { "name": null, "dong": "인천광역시 서구 금곡동", "usage": "제1종근린생활시설" }, "geometry": { "type": "Polygon", "coordinates": [ [ [ 126.636445592043771, 37.61798335495947 ], [ 126.636688805614526, 37.617868196563556 ], [ 126.636639983613364, 37.617799517398311 ], [ 126.636393477101038, 37.61791638637078 ], [ 126.636445592043771, 37.61798335495947 ] ] ] } },
{ "type": "Feature", "properties": { "name": null, "dong": "인천광역시 서구 오류동", "usage": "제1종근린생활시설" }, "geometry": { "type": "Polygon", "coordinates": [ [ [ 126.615391641357405, 37.593495990927124 ], [ 126.615413556937909, 37.593481737049935 ], [ 126.615394922499348, 37.593463602455657 ], [ 126.615574177982538, 37.593346971330433 ], [ 126.615450181346887, 37.593226303154964 ], [ 126.615252077868874, 37.593355197810553 ], [ 126.615375353370439, 37.593475161068532 ], [ 126.615372285849659, 37.5934771602167 ], [ 126.615391641357405, 37.593495990927124 ] ] ] } },
{ "type": "Feature", "properties": { "name": null, "dong": "인천광역시 서구 오류동", "usage": "제2종근린생활시설" }, "geometry": { "type": "Polygon", "coordinates": [ [ [ 126.615770627531603, 37.593248830152369 ], [ 126.61581240819558, 37.593220468717405 ], [ 126.615686763100413, 37.593103246150676 ], [ 126.615653595381843, 37.593125761314333 ], [ 126.615465464395015, 37.593220280541892 ], [ 126.615585227117109, 37.593332015166048 ], [ 126.615770450635878, 37.593206321382745 ], [ 126.615782203806361, 37.59321728866756 ], [ 126.615755933269241, 37.593235114278293 ], [ 126.615770627531603, 37.593248830152369 ] ] ] } },
{ "type": "Feature", "properties": { "name": null, "dong": "인천광역시 서구 오류동", "usage": "제1종근린생활시설" }, "geometry": { "type": "Polygon", "coordinates": [ [ [ 126.614152777802801, 37.594072450554243 ], [ 126.614275115707358, 37.594191871281112 ], [ 126.614471709964519, 37.594064360851206 ], [ 126.614360108494196, 37.593955417886548 ], [ 126.614226705388788, 37.594041942733369 ], [ 126.614215968852051, 37.594031465159809 ], [ 126.614152777802801, 37.594072450554243 ] ] ] } },
{ "type": "Feature", "properties": { "name": null, "dong": "인천광역시 서구 오류동", "usage": "제1종근린생활시설" }, "geometry": { "type": "Polygon", "coordinates": [ [ [ 126.614517767918244, 37.594065151563186 ], [ 126.614717026185744, 37.593930333505782 ], [ 126.614587935333233, 37.593809530616518 ], [ 126.614388677158857, 37.593944348459253 ], [ 126.614517767918244, 37.594065151563186 ] ] ] } },
{ "type": "Feature", "properties": { "name": null, "dong": "인천광역시 서구 오류동", "usage": "제2종근린생활시설" }, "geometry": { "type": "Polygon", "coordinates": [ [ [ 126.614430291453942, 37.594859888438982 ], [ 126.614572788057103, 37.594766843071859 ], [ 126.61441547330665, 37.594614314115802 ], [ 126.614201898797504, 37.594753778766723 ], [ 126.614303804535936, 37.594852581080403 ], [ 126.614430291453942, 37.594859888438982 ] ] ] } },
{ "type": "Feature", "properties": { "name": "검암2차신명스카이뷰", "dong": "인천광역시 서구 검암동", "usage": "제2종근린생활시설" }, "geometry": { "type": "Polygon", "coordinates": [ [ [ 126.685604129269166, 37.566500829692203 ], [ 126.68560640062698, 37.56649903379985 ], [ 126.685604144488096, 37.566497225793313 ], [ 126.68560187313031, 37.566499021685566 ], [ 126.685604129269166, 37.566500829692203 ] ] ] } }
]
}
